{"type": "FeatureCollection", "features": [ {"type": "Feature", "properties": {"norad_id": 67113, "name": "STARLINK-35789", "group": "last-30-days", "lat": 21.212130471775854, "lon": 23.455949756675018, "alt_km": 338.23217962484614, "timestamp": "2025-12-27T04:40:44.222399+00:00", "meta": {"OBJECT_NAME": "STARLINK-35789", "OBJECT_ID": "2025-299M", "EPOCH": "2025-12-26T22:00:01.999584", "MEAN_MOTION": 15.77395499, "ECCENTRICITY": 0.00016703, "INCLINATION": 42.9981, "RA_OF_ASC_NODE": 229.7653, "ARG_OF_PERICENTER": 267.4698, "MEAN_ANOMALY": 98.8743, "EPHEMERIS_TYPE": 0, "CLASSIFICATION_TYPE": "U", "NORAD_CAT_ID": 67113, "ELEMENT_SET_NO": 999, "REV_AT_EPOCH": 298, "BSTAR": -0.012050357, "MEAN_MOTION_DOT": -0.01803022, "MEAN_MOTION_DDOT": 0}, "tle": {"line1": "1 67113U 25299M   25360.91668981 -.01803022  00000+0 -12050-1 0  9995", "line2": "2 67113  42.9981 229.7653 0001670 267.4698  98.8743 15.77395499  2980"}}, "geometry": {"type": "Point", "coordinates": [23.455949756675018, 21.212130471775854]}}, {"type": "Feature", "properties": {"norad_id": 67114, "name": "STARLINK-36180", "group": "last-30-days", "lat": 20.060314393486347, "lon": 24.995032599252017, "alt_km": 338.2426674212138, "timestamp": "2025-12-27T04:40:44.222409+00:00", "meta": {"OBJECT_NAME": "STARLINK-36180", "OBJECT_ID": "2025-299N", "EPOCH": "2025-12-26T22:00:01.999584", "MEAN_MOTION": 15.77397728, "ECCENTRICITY": 0.00014545, "INCLINATION": 42.9983, "RA_OF_ASC_NODE": 229.7609, "ARG_OF_PERICENTER": 264.6979, "MEAN_ANOMALY": 103.4876, "EPHEMERIS_TYPE": 0, "CLASSIFICATION_TYPE": "U", "NORAD_CAT_ID": 67114, "ELEMENT_SET_NO": 999, "REV_AT_EPOCH": 308, "BSTAR": -0.012029503, "MEAN_MOTION_DOT": -0.01800264, "MEAN_MOTION_DDOT": 0}, "tle": {"line1": "1 67114U 25299N   25360.91668981 -.01800264  00000+0 -12030-1 0  9999", "line2": "2 67114  42.9983 229.7609 0001454 264.6979 103.4876 15.77397728  3084"}}, "geometry": {"type": "Point", "coordinates": [24.995032599252017, 20.060314393486347]}}, {"type": "Feature", "properties": {"norad_id": 67115, "name": "STARLINK-35892", "group": "last-30-days", "lat": 19.007304763873798, "lon": 26.366372670974336, "alt_km": 338.3879600507362, "timestamp": "2025-12-27T04:40:44.222419+00:00", "meta": {"OBJECT_NAME": "STARLINK-35892", "OBJECT_ID": "2025-299P", "EPOCH": "2025-12-26T22:00:01.999584", "MEAN_MOTION": 15.77404867, "ECCENTRICITY": 0.00015844, "INCLINATION": 42.9981, "RA_OF_ASC_NODE": 229.7563, "ARG_OF_PERICENTER": 264.8169, "MEAN_ANOMALY": 105.0298, "EPHEMERIS_TYPE": 0, "CLASSIFICATION_TYPE": "U", "NORAD_CAT_ID": 67115, "ELEMENT_SET_NO": 999, "REV_AT_EPOCH": 298, "BSTAR": -0.011975792, "MEAN_MOTION_DOT": -0.01793839, "MEAN_MOTION_DDOT": 0}, "tle": {"line1": "1 67115U 25299P   25360.91668981 -.01793839  00000+0 -11976-1 0  9997", "line2": "2 67115  42.9981 229.7563 0001584 264.8169 105.0298 15.77404867  2986"}}, "geometry": {"type": "Point", "coordinates": [26.366372670974336, 19.007304763873798]}}, {"type": "Feature", "properties": {"norad_id": 67116, "name": "STARLINK-35738", "group": "last-30-days", "lat": 17.805378877303628, "lon": 27.895866797953527, "alt_km": 338.7807763215469, "timestamp": "2025-12-27T04:40:44.222430+00:00", "meta": {"OBJECT_NAME": "STARLINK-35738", "OBJECT_ID": "2025-299Q", "EPOCH": "2025-12-26T22:00:01.999584", "MEAN_MOTION": 15.77406563, "ECCENTRICITY": 0.00016547, "INCLINATION": 42.9982, "RA_OF_ASC_NODE": 229.7516, "ARG_OF_PERICENTER": 275.3593, "MEAN_ANOMALY": 96.3715, "EPHEMERIS_TYPE": 0, "CLASSIFICATION_TYPE": "U", "NORAD_CAT_ID": 67116, "ELEMENT_SET_NO": 999, "REV_AT_EPOCH": 298, "BSTAR": -0.011986052, "MEAN_MOTION_DOT": -0.01795365, "MEAN_MOTION_DDOT": 0}, "tle": {"line1": "1 67116U 25299Q   25360.91668981 -.01795365  00000+0 -11986-1 0  9995", "line2": "2 67116  42.9982 229.7516 0001654 275.3593  96.3715 15.77406563  2983"}}, "geometry": {"type": "Point", "coordinates": [27.895866797953527, 17.805378877303628]}}, {"type": "Feature", "properties": {"norad_id": 67117, "name": "STARLINK-35674", "group": "last-30-days", "lat": 16.679426203008873, "lon": 29.297143889273023, "alt_km": 338.7115605327199, "timestamp": "2025-12-27T04:40:44.222441+00:00", "meta": {"OBJECT_NAME": "STARLINK-35674", "OBJECT_ID": "2025-299R", "EPOCH": "2025-12-26T22:00:01.999584", "MEAN_MOTION": 15.77415751, "ECCENTRICITY": 0.00016287, "INCLINATION": 42.9984, "RA_OF_ASC_NODE": 229.7476, "ARG_OF_PERICENTER": 266.309, "MEAN_ANOMALY": 107.1671, "EPHEMERIS_TYPE": 0, "CLASSIFICATION_TYPE": "U", "NORAD_CAT_ID": 67117, "ELEMENT_SET_NO": 999, "REV_AT_EPOCH": 288, "BSTAR": -0.012028432, "MEAN_MOTION_DOT": -0.01801557, "MEAN_MOTION_DDOT": 0}, "tle": {"line1": "1 67117U 25299R   25360.91668981 -.01801557  00000+0 -12028-1 0  9995", "line2": "2 67117  42.9984 229.7476 0001628 266.3090 107.1671 15.77415751  2884"}}, "geometry": {"type": "Point", "coordinates": [29.297143889273023, 16.679426203008873]}}, {"type": "Feature", "properties": {"norad_id": 67118, "name": "STARLINK-35701", "group": "last-30-days", "lat": 15.520910926607254, "lon": 30.708991677214954, "alt_km": 339.1292544470052, "timestamp": "2025-12-27T04:40:44.222451+00:00", "meta": {"OBJECT_NAME": "STARLINK-35701", "OBJECT_ID": "2025-299S", "EPOCH": "2025-12-26T22:00:01.999584", "MEAN_MOTION": 15.77416321, "ECCENTRICITY": 0.00016779, "INCLINATION": 42.9983, "RA_OF_ASC_NODE": 229.7428, "ARG_OF_PERICENTER": 279.5167, "MEAN_ANOMALY": 95.7396, "EPHEMERIS_TYPE": 0, "CLASSIFICATION_TYPE": "U", "NORAD_CAT_ID": 67118, "ELEMENT_SET_NO": 999, "REV_AT_EPOCH": 304, "BSTAR": -0.011950005, "MEAN_MOTION_DOT": -0.01791345, "MEAN_MOTION_DDOT": 0}, "tle": {"line1": "1 67118U 25299S   25360.91668981 -.01791345  00000+0 -11950-1 0  9992", "line2": "2 67118  42.9983 229.7428 0001677 279.5167  95.7396 15.77416321  3045"}}, "geometry": {"type": "Point", "coordinates": [30.708991677214954, 15.520910926607254]}}, {"type": "Feature", "properties": {"norad_id": 67119, "name": "STARLINK-36179", "group": "last-30-days", "lat": 13.527566633481946, "lon": 33.077885692188765, "alt_km": 339.0928864525713, "timestamp": "2025-12-27T04:40:44.222480+00:00", "meta": {"OBJECT_NAME": "STARLINK-36179", "OBJECT_ID": "2025-299T", "EPOCH": "2025-12-26T22:00:01.999584", "MEAN_MOTION": 15.77450706, "ECCENTRICITY": 0.00016512, "INCLINATION": 42.998, "RA_OF_ASC_NODE": 229.7348, "ARG_OF_PERICENTER": 270.8038, "MEAN_ANOMALY": 107.4632, "EPHEMERIS_TYPE": 0, "CLASSIFICATION_TYPE": "U", "NORAD_CAT_ID": 67119, "ELEMENT_SET_NO": 999, "REV_AT_EPOCH": 308, "BSTAR": -0.011952782, "MEAN_MOTION_DOT": -0.01794132, "MEAN_MOTION_DDOT": 0}, "tle": {"line1": "1 67119U 25299T   25360.91668981 -.01794132  00000+0 -11953-1 0  9993", "line2": "2 67119  42.9980 229.7348 0001651 270.8038 107.4632 15.77450706  3080"}}, "geometry": {"type": "Point", "coordinates": [33.077885692188765, 13.527566633481946]}}, {"type": "Feature", "properties": {"norad_id": 67120, "name": "STARLINK-36217", "group": "last-30-days", "lat": 14.481143857938976, "lon": 31.954122354137745, "alt_km": 339.13031735350796, "timestamp": "2025-12-27T04:40:44.222491+00:00", "meta": {"OBJECT_NAME": "STARLINK-36217", "OBJECT_ID": "2025-299U", "EPOCH": "2025-12-26T22:00:01.999584", "MEAN_MOTION": 15.77433257, "ECCENTRICITY": 0.00017746, "INCLINATION": 42.9983, "RA_OF_ASC_NODE": 229.7391, "ARG_OF_PERICENTER": 273.2012, "MEAN_ANOMALY": 103.6359, "EPHEMERIS_TYPE": 0, "CLASSIFICATION_TYPE": "U", "NORAD_CAT_ID": 67120, "ELEMENT_SET_NO": 999, "REV_AT_EPOCH": 308, "BSTAR": -0.012019811, "MEAN_MOTION_DOT": -0.01801802, "MEAN_MOTION_DDOT": 0}, "tle": {"line1": "1 67120U 25299U   25360.91668981 -.01801802  00000+0 -12020-1 0  9994", "line2": "2 67120  42.9983 229.7391 0001774 273.2012 103.6359 15.77433257  3084"}}, "geometry": {"type": "Point", "coordinates": [31.954122354137745, 14.481143857938976]}}, {"type": "Feature", "properties": {"norad_id": 67121, "name": "STARLINK-36124", "group": "last-30-days", "lat": 11.17456120953295, "lon": 35.79299078301506, "alt_km": 339.4872406386794, "timestamp": "2025-12-27T04:40:44.222501+00:00", "meta": {"OBJECT_NAME": "STARLINK-36124", "OBJECT_ID": "2025-299V", "EPOCH": "2025-12-26T22:00:01.999584", "MEAN_MOTION": 15.77470638, "ECCENTRICITY": 0.00017074, "INCLINATION": 42.9982, "RA_OF_ASC_NODE": 229.7264, "ARG_OF_PERICENTER": 276.7347, "MEAN_ANOMALY": 105.0656, "EPHEMERIS_TYPE": 0, "CLASSIFICATION_TYPE": "U", "NORAD_CAT_ID": 67121, "ELEMENT_SET_NO": 999, "REV_AT_EPOCH": 308, "BSTAR": -0.012019791, "MEAN_MOTION_DOT": -0.0180441, "MEAN_MOTION_DDOT": 0}, "tle": {"line1": "1 67121U 25299V   25360.91668981 -.01804410  00000+0 -12020-1 0  9993", "line2": "2 67121  42.9982 229.7264 0001707 276.7347 105.0656 15.77470638  3088"}}, "geometry": {"type": "Point", "coordinates": [35.79299078301506, 11.17456120953295]}}, {"type": "Feature", "properties": {"norad_id": 67122, "name": "STARLINK-36188", "group": "last-30-days", "lat": 10.107784335148946, "lon": 36.99954752364836, "alt_km": 339.4421588063151, "timestamp": "2025-12-27T04:40:44.222511+00:00", "meta": {"OBJECT_NAME": "STARLINK-36188", "OBJECT_ID": "2025-299W", "EPOCH": "2025-12-26T22:00:01.999584", "MEAN_MOTION": 15.77474353, "ECCENTRICITY": 0.00017301, "INCLINATION": 42.9983, "RA_OF_ASC_NODE": 229.7227, "ARG_OF_PERICENTER": 270.2519, "MEAN_ANOMALY": 113.1402, "EPHEMERIS_TYPE": 0, "CLASSIFICATION_TYPE": "U", "NORAD_CAT_ID": 67122, "ELEMENT_SET_NO": 999, "REV_AT_EPOCH": 308, "BSTAR": -0.011955981, "MEAN_MOTION_DOT": -0.01796303, "MEAN_MOTION_DDOT": 0}, "tle": {"line1": "1 67122U 25299W   25360.91668981 -.01796303  00000+0 -11956-1 0  9992", "line2": "2 67122  42.9983 229.7227 0001730 270.2519 113.1402 15.77474353  3082"}}, "geometry": {"type": "Point", "coordinates": [36.99954752364836, 10.107784335148946]}}]}